*******************************************************************************
 Revised: Mar 27, 2009             Triton / (Neptune)                       801

 SATELLITE PHYSICAL PROPERTIES:
  Radius (km)             = 1352.6 +- 2.4   Density (g cm^-3)   = 2.054 +-0.032
  Mass (10^20 kg )        =  214.7 +- 0.7   Geometric Albedo    =  0.7  
                                            V(1,0)              = -1.24

 SATELLITE ORBITAL DATA:
  Semi-major axis, a (km) = 354.76(10^3)    Orbital period      = 5.876854 d (R)
  Eccentricity, e         =                 Rotational period   = Synchronous
  Inclination, i  (deg)   = 156.834

 Fit to all reported measurements through 2008, as described in AJ (2009).
*******************************************************************************
 
 
*******************************************************************************
Ephemeris / WWW_USER Tue May 19 06:17:57 2020 Pasadena, USA      / Horizons    
*******************************************************************************
Target body name: Triton (801)                    {source: nep081xl}
Center body name: Neptune (899)                   {source: nep081xl}
Center-site name: BODY CENTER
*******************************************************************************
Start time      : A.D. 2020-May-19 00:00:00.0000 TDB
Stop  time      : A.D. 2020-Jul-18 00:00:00.0000 TDB
Step-size       : 1440 minutes
*******************************************************************************
Center geodetic : 0.00000000,0.00000000,0.0000000 {W-lon(deg),Lat(deg),Alt(km)}
Center cylindric: 0.00000000,0.00000000,0.0000000 {W-lon(deg),Dxy(km),Dz(km)}
Center radii    : 24764.0 x 24764.0 x 24341.0 km  {Equator, meridian, pole}    
Output units    : KM-S                                                         
Output type     : GEOMETRIC cartesian states
Output format   : 1 (position only)
Reference frame : ICRF/J2000.0                                                 
Coordinate systm: Ecliptic and Mean Equinox of Reference Epoch                 
*******************************************************************************
            JDTDB,            Calendar Date (TDB),                      X,                      Y,                      Z,
**************************************************************************************************************************
$$SOE
2458988.500000000, A.D. 2020-May-19 00:00:00.0000,  6.164753950872497E+04, -2.310821291695422E+05, -2.620226289674897E+05,
2458989.500000000, A.D. 2020-May-20 00:00:00.0000, -2.325441207851443E+05, -2.623490222557185E+05, -5.432029378675210E+04,
2458990.500000000, A.D. 2020-May-21 00:00:00.0000, -2.852964588169787E+05, -2.123487741044232E+04,  2.097806578018645E+05,
2458991.500000000, A.D. 2020-May-22 00:00:00.0000, -4.183951068202626E+04,  2.419278186270991E+05,  2.560717596759649E+05,
2458992.500000000, A.D. 2020-May-23 00:00:00.0000,  2.450551699424611E+05,  2.539098727467749E+05,  3.648945211795063E+04,
2458993.500000000, A.D. 2020-May-24 00:00:00.0000,  2.775204152834681E+05,  2.269822446443301E+03, -2.209803558965115E+05,
2458994.500000000, A.D. 2020-May-25 00:00:00.0000,  2.185577225816354E+04, -2.517295058609797E+05, -2.490176123584742E+05,
2458995.500000000, A.D. 2020-May-26 00:00:00.0000, -2.564971312977564E+05, -2.443783931120457E+05, -1.851291776853697E+04,
2458996.500000000, A.D. 2020-May-27 00:00:00.0000, -2.685414563244102E+05,  1.669668616035488E+04,  2.312129962410185E+05,
2458997.500000000, A.D. 2020-May-28 00:00:00.0000, -1.772663619682972E+03,  2.604379266103259E+05,  2.408762999448356E+05,
2458998.500000000, A.D. 2020-May-29 00:00:00.0000,  2.668343221545398E+05,  2.337802380591111E+05,  4.431665338070452E+02,
2458999.500000000, A.D. 2020-May-30 00:00:00.0000,  2.584003138943161E+05, -3.560002171175626E+04, -2.404517499629598E+05,
2459000.500000000, A.D. 2020-May-31 00:00:00.0000, -1.831167420579815E+04, -2.680219727879474E+05, -2.316981717910682E+05,
2459001.500000000, A.D. 2020-Jun-01 00:00:00.0000, -2.760088497412197E+05, -2.221776854350648E+05,  1.761579458209610E+04,
2459002.500000000, A.D. 2020-Jun-02 00:00:00.0000, -2.471393163705804E+05,  5.434152984154929E+04,  2.486397986096652E+05,
2459003.500000000, A.D. 2020-Jun-03 00:00:00.0000,  3.832223582000252E+04,  2.744421523138637E+05,  2.215072886911684E+05,
2459004.500000000, A.D. 2020-Jun-04 00:00:00.0000,  2.839933769467779E+05,  2.096037822360799E+05, -3.561139443009967E+04,
2459005.500000000, A.D. 2020-Jun-05 00:00:00.0000,  2.348088977024648E+05, -7.285603132209921E+04, -2.557576323072598E+05,
2459006.500000000, A.D. 2020-Jun-06 00:00:00.0000, -5.815953327674173E+04, -2.796773270192072E+05, -2.103642852081093E+05,
2459007.500000000, A.D. 2020-Jun-07 00:00:00.0000, -2.907418247423666E+05, -1.961308278098368E+05,  5.343990347271853E+04,
2459008.500000000, A.D. 2020-Jun-08 00:00:00.0000, -2.214608013758778E+05,  9.104817864937852E+04,  2.617590724679398E+05,
2459009.500000000, A.D. 2020-Jun-09 00:00:00.0000,  7.775117713503502E+04,  2.836978816327555E+05,  1.983002331723395E+05,
2459010.500000000, A.D. 2020-Jun-10 00:00:00.0000,  2.962356392093934E+05,  1.817986556177663E+05, -7.104956971198508E+04,
2459011.500000000, A.D. 2020-Jun-11 00:00:00.0000,  2.071548096831146E+05, -1.088534632054253E+05, -2.666327723245400E+05,
2459012.500000000, A.D. 2020-Jun-12 00:00:00.0000, -9.699811215193672E+04, -2.864935891793665E+05, -1.853854847700006E+05,
2459013.500000000, A.D. 2020-Jun-13 00:00:00.0000, -3.004413437342620E+05, -1.666883342238364E+05,  8.833873304143321E+04,
2459014.500000000, A.D. 2020-Jun-14 00:00:00.0000, -1.919506697141808E+05,  1.261813560766686E+05,  2.703434514054781E+05,
2459015.500000000, A.D. 2020-Jun-15 00:00:00.0000,  1.158317219700233E+05,  2.880446600576596E+05,  1.716571424366729E+05,
2459016.500000000, A.D. 2020-Jun-16 00:00:00.0000,  3.033495421553671E+05,  1.508458282104754E+05, -1.052573700276808E+05,
2459017.500000000, A.D. 2020-Jun-17 00:00:00.0000,  1.759169805848151E+05, -1.429693187481832E+05, -2.728886966831628E+05,
2459018.500000000, A.D. 2020-Jun-18 00:00:00.0000, -1.341552280905391E+05, -2.883525043359817E+05, -1.571944575469448E+05,
2459019.500000000, A.D. 2020-Jun-19 00:00:00.0000, -3.049398375203357E+05, -1.343595118512060E+05,  1.217076257690213E+05,
2459020.500000000, A.D. 2020-Jun-20 00:00:00.0000, -1.591199718211380E+05,  1.591329785998883E+05,  2.742441349086254E+05,
2459021.500000000, A.D. 2020-Jun-21 00:00:00.0000,  1.519048162183010E+05,  2.874069748603895E+05,  1.420395636324955E+05,
2459022.500000000, A.D. 2020-Jun-22 00:00:00.0000,  3.052123032236833E+05,  1.172807688309557E+05, -1.376421164241472E+05,
2459023.500000000, A.D. 2020-Jun-23 00:00:00.0000,  1.416363347335425E+05, -1.746131242559908E+05, -2.744169542963640E+05,
2459024.500000000, A.D. 2020-Jun-24 00:00:00.0000, -1.689878414441601E+05, -2.852215947401353E+05, -1.262795518780112E+05,
2459025.500000000, A.D. 2020-Jun-25 00:00:00.0000, -3.041597759509257E+05, -9.970365005830358E+04,  1.529684201794383E+05,
2459026.500000000, A.D. 2020-Jun-26 00:00:00.0000, -1.235371996043962E+05,  1.893326800437438E+05,  2.733934671088310E+05,
2459027.500000000, A.D. 2020-Jun-27 00:00:00.0000,  1.853461962319665E+05,  2.817955674935413E+05,  1.099605869501694E+05,
2459028.500000000, A.D. 2020-Jun-28 00:00:00.0000,  3.017920424053153E+05,  8.168418057105024E+04, -1.676427094114333E+05,
2459029.500000000, A.D. 2020-Jun-29 00:00:00.0000,  1.049064235203911E+05, -2.032371495408281E+05, -2.711909954904300E+05,
2459030.500000000, A.D. 2020-Jun-30 00:00:00.0000, -2.008931841101814E+05, -2.771547286459441E+05, -9.317631906711285E+04,
2459031.500000000, A.D. 2020-Jul-01 00:00:00.0000, -2.981150043113930E+05, -6.332034408167898E+04,  1.815794690362878E+05,
2459032.500000000, A.D. 2020-Jul-02 00:00:00.0000, -8.581844249929412E+04,  2.162576836995853E+05,  2.678061098166137E+05,
2459033.500000000, A.D. 2020-Jul-03 00:00:00.0000,  2.155771929445208E+05,  2.713072533468450E+05,  7.597595667159298E+04,
2459034.500000000, A.D. 2020-Jul-04 00:00:00.0000,  2.931483266558277E+05,  4.467195309564372E+04, -1.947393507090613E+05,
2459035.500000000, A.D. 2020-Jul-05 00:00:00.0000,  6.636314974803316E+04, -2.283458868944203E+05, -2.632666326762075E+05,
2459036.500000000, A.D. 2020-Jul-06 00:00:00.0000, -2.293191908532604E+05, -2.642911950240486E+05, -5.845823668200950E+04,
2459037.500000000, A.D. 2020-Jul-07 00:00:00.0000, -2.869104975680492E+05, -2.583911994709991E+04,  2.070450253624297E+05,
2459038.500000000, A.D. 2020-Jul-08 00:00:00.0000, -4.661672054812812E+04,  2.394418514771920E+05,  2.575787895775206E+05,
2459039.500000000, A.D. 2020-Jul-09 00:00:00.0000,  2.420747456863801E+05,  2.561232518494125E+05,  4.067444328462740E+04,
2459040.500000000, A.D. 2020-Jul-10 00:00:00.0000,  2.794311310909242E+05,  6.884505769612835E+03, -2.184625490256130E+05,
2459041.500000000, A.D. 2020-Jul-11 00:00:00.0000,  2.667375942738919E+04, -2.495046277171143E+05, -2.507810746893367E+05,
2459042.500000000, A.D. 2020-Jul-12 00:00:00.0000, -2.537740528360154E+05, -2.468532999461266E+05, -2.272677415010778E+04,
2459043.500000000, A.D. 2020-Jul-13 00:00:00.0000, -2.707405368801452E+05,  1.209145862790500E+04,  2.289238325545944E+05,
2459044.500000000, A.D. 2020-Jul-14 00:00:00.0000, -6.610679139831018E+03,  2.584837535579461E+05,  2.428886231723642E+05,
2459045.500000000, A.D. 2020-Jul-15 00:00:00.0000,  2.643804533184472E+05,  2.365060553640594E+05,  4.667642397286807E+03,
2459046.500000000, A.D. 2020-Jul-16 00:00:00.0000,  2.608782353596832E+05, -3.102429387569566E+04, -2.384012539627319E+05,
2459047.500000000, A.D. 2020-Jul-17 00:00:00.0000, -1.347470731038263E+04, -2.663469875067326E+05, -2.339505516157032E+05,
2459048.500000000, A.D. 2020-Jul-18 00:00:00.0000, -2.738347278913442E+05, -2.251425258481620E+05,  1.339902738662172E+04,
$$EOE
**************************************************************************************************************************
Coordinate system description:

  Ecliptic and Mean Equinox of Reference Epoch

    Reference epoch: J2000.0
    XY-plane: plane of the Earth's orbit at the reference epoch
              Note: obliquity of 84381.448 arcseconds wrt ICRF equator (IAU76)
    X-axis  : out along ascending node of instantaneous plane of the Earth's
              orbit and the Earth's mean equator at the reference epoch
    Z-axis  : perpendicular to the xy-plane in the directional (+ or -) sense
              of Earth's north pole at the reference epoch.

  Symbol meaning:

    JDTDB    Julian Day Number, Barycentric Dynamical Time
      X      X-component of position vector (km)                               
      Y      Y-component of position vector (km)                               
      Z      Z-component of position vector (km)                               

Geometric states/elements have no aberrations applied.

 Computations by ...
     Solar System Dynamics Group, Horizons On-Line Ephemeris System
     4800 Oak Grove Drive, Jet Propulsion Laboratory
     Pasadena, CA  91109   USA
     Information: http://ssd.jpl.nasa.gov/
     Connect    : telnet://ssd.jpl.nasa.gov:6775  (via browser)
                  http://ssd.jpl.nasa.gov/?horizons
                  telnet ssd.jpl.nasa.gov 6775    (via command-line)
     Author     : Jon.D.Giorgini@jpl.nasa.gov
*******************************************************************************
